     2.11           N: GPS NAV DATA                         RINEX VERSION / TYPE
teqc  2019Feb25                         20221121 12:28:52UTCPGM / RUN BY / DATE
OSX ker:10.11.6|Core i5|gcc 4.3 -m64|OSX ker:10.10+|=+      COMMENT
    1.2107D-08 -7.4506D-09 -1.1921D-07  5.9605D-08          ION ALPHA
    9.6256D+04 -3.2768D+04 -1.9661D+05  1.9661D+05          ION BETA
   -2.793967723846D-09-6.217248937901D-15   589824     1555 DELTA-UTC: A0,A1,T,W
                                                            END OF HEADER
 2 09 10 30  0  0  0.0 1.860158517957D-04 3.979039320257D-12 0.000000000000D+00
    8.900000000000D+01 7.556250000000D+01 5.043067206849D-09-5.674570503496D-01
    3.928318619728D-06 9.147724951617D-03 9.585171937943D-06 5.153731386185D+03
    4.320000000000D+05 1.266598701477D-07 3.113521485136D+00-1.452863216400D-07
    9.411084822258D-01 1.843750000000D+02 2.909181536940D+00-8.358919611125D-09
    3.918020344131D-10 1.000000000000D+00 1.555000000000D+03 0.000000000000D+00
    2.000000000000D+00 0.000000000000D+00-1.722946763039D-08 8.900000000000D+01
    4.290780000000D+05 4.000000000000D+00
 4 09 10 30  0  0  0.0-3.344048745930D-04-1.796252036002D-11 0.000000000000D+00
    3.900000000000D+01 8.000000000000D+01 5.025566477873D-09 2.284128935138D+00
    4.146248102188D-06 8.969130576588D-03 9.944662451744D-06 5.153568717957D+03
    4.320000000000D+05-1.676380634308D-07 3.131680096235D+00-9.685754776001D-08
    9.402912113375D-01 1.778125000000D+02 5.469492268821D-01-8.226056934004D-09
    3.721583590323D-10 1.000000000000D+00 1.555000000000D+03 0.000000000000D+00
    2.000000000000D+00 0.000000000000D+00-6.053596735001D-09 3.900000000000D+01
    4.290780000000D+05 4.000000000000D+00
 5 09 10 30  0  0  0.0-5.465839058161D-05 7.730704965070D-12 0.000000000000D+00
    5.900000000000D+01 1.075000000000D+01 5.037709840836D-09 8.280885194507D-01
    6.761401891708D-07 1.586460159160D-03 3.138557076454D-06 5.153580778122D+03
    4.320000000000D+05 1.117587089539D-08-2.111657168048D+00-2.235174179077D-08
    9.609908643268D-01 3.162812500000D+02 2.262062432437D-01-8.540355740097D-09
   -9.500395729616D-11 1.000000000000D+00 1.555000000000D+03 0.000000000000D+00
    2.000000000000D+00 0.000000000000D+00-9.313225746155D-09 5.900000000000D+01
    4.290780000000D+05 4.000000000000D+00
10 09 10 30  0  0  0.0-2.709357067943D-05-9.094947017729D-13 0.000000000000D+00
    2.100000000000D+01 8.531250000000D+00 5.174858410767D-09 5.752189411149D-01
    6.388872861862D-07 8.674374432303D-03 3.186985850334D-06 5.153387798309D+03
    4.320000000000D+05-1.303851604462D-08-2.084713483724D+00 1.080334186554D-07
    9.560464864879D-01 3.132500000000D+02 6.185103853373D-01-8.698933774080D-09
   -1.578637185147D-10 1.000000000000D+00 1.555000000000D+03 0.000000000000D+00
    2.000000000000D+00 0.000000000000D+00-2.793967723846D-09 2.100000000000D+01
    4.290780000000D+05 4.000000000000D+00
13 09 10 30  0  0  0.0 3.059618175030D-04 2.273736754432D-13 0.000000000000D+00
    8.900000000000D+01-5.246875000000D+01 3.704797176816D-09 6.749995888994D-02
   -2.816319465637D-06 3.932200721465D-03 9.745359420776D-06 5.153635728836D+03
    4.320000000000D+05-3.539025783539D-08-9.979792309151D-01 7.450580596924D-09
    9.940878381029D-01 2.092500000000D+02 1.660414160217D+00-7.730679156674D-09
   -3.635865734116D-10 1.000000000000D+00 1.555000000000D+03 0.000000000000D+00
    2.000000000000D+00 0.000000000000D+00-1.117587089539D-08 8.900000000000D+01
    4.290780000000D+05 4.000000000000D+00
16 09 10 30  0  0  0.0-2.845190465450D-06-4.092726157978D-12 0.000000000000D+00
    1.060000000000D+02-1.306250000000D+01 4.551618164595D-09 1.669358761733D+00
   -5.699694156647D-07 5.308277206495D-03 4.472211003304D-06 5.153643714905D+03
    4.320000000000D+05 2.607703208923D-08 1.057429231452D+00 4.656612873077D-08
    9.695751388792D-01 2.964687500000D+02-2.694400499567D-01-8.198198630737D-09
   -2.392956819114D-11 1.000000000000D+00 1.555000000000D+03 0.000000000000D+00
    2.000000000000D+00 0.000000000000D+00-9.778887033463D-09 1.060000000000D+02
    4.296780000000D+05 4.000000000000D+00
29 09 10 30  0  0  0.0 7.011974230409D-05 3.069544618484D-12 0.000000000000D+00
    5.000000000000D+01-4.803125000000D+01 4.381611083118D-09-3.134741402996D+00
   -2.644956111908D-06 2.936401870102D-03 1.032464206219D-05 5.153586769104D+03
    4.320000000000D+05 5.587935447693D-09 2.108781024291D+00-1.303851604462D-08
    9.600062897382D-01 1.775000000000D+02-1.271418733591D+00-7.897114660810D-09
   -2.821546100149D-10 1.000000000000D+00 1.555000000000D+03 0.000000000000D+00
    2.000000000000D+00 0.000000000000D+00-8.847564458847D-09 5.000000000000D+01
    4.290780000000D+05 4.000000000000D+00
 7 09 10 30  0  0  0.0 8.672941476107D-06-6.821210263297D-13 0.000000000000D+00
    3.900000000000D+01 4.021875000000D+01 4.178031174626D-09-2.283332105604D+00
    2.041459083557D-06 3.238789620809D-03 9.721145033836D-06 5.153646999359D+03
    4.320000000000D+05-1.862645149231D-09-1.230627900592D-02 3.166496753693D-08
    9.696219464060D-01 1.980625000000D+02 3.005240844435D+00-7.884256982379D-09
    3.835874065266D-10 1.000000000000D+00 1.555000000000D+03 0.000000000000D+00
    2.000000000000D+00 0.000000000000D+00-1.071020960808D-08 3.900000000000D+01
    4.300080000000D+05 4.000000000000D+00
 5 09 10 30  2  0  0.0-5.460251122713D-05 7.730704965070D-12 0.000000000000D+00
    1.010000000000D+02 1.087500000000D+01 5.053781938875D-09 1.877982172101D+00
    6.929039955139D-07 1.586596365087D-03 3.498047590256D-06 5.153581851959D+03
    4.392000000000D+05-2.048909664154D-08-2.111719198701D+00 1.005828380585D-07
    9.609905351703D-01 3.122500000000D+02 2.265540842013D-01-8.531069639008D-09
    1.035757429169D-11 1.000000000000D+00 1.555000000000D+03 0.000000000000D+00
    2.000000000000D+00 0.000000000000D+00-9.313225746155D-09 1.010000000000D+02
    4.320180000000D+05 4.000000000000D+00
 4 09 10 30  2  0  0.0-3.345347940922D-04-1.796252036002D-11 0.000000000000D+00
    4.000000000000D+01 8.253125000000D+01 4.897346851297D-09-2.948851248039D+00
    4.142522811890D-06 8.968170150183D-03 9.680166840553D-06 5.153570629120D+03
    4.392000000000D+05-4.097819328308D-08 3.131621399573D+00-8.195638656616D-08
    9.402943375934D-01 1.850000000000D+02 5.469916924681D-01-8.122481191087D-09
    3.696582548929D-10 1.000000000000D+00 1.555000000000D+03 0.000000000000D+00
    2.000000000000D+00 0.000000000000D+00-6.053596735001D-09 4.000000000000D+01
    4.320180000000D+05 4.000000000000D+00
13 09 10 30  2  0  0.0 3.059632144868D-04 2.273736754432D-13 0.000000000000D+00
    9.800000000000D+01-5.656250000000D+01 3.685510659169D-09 1.117547659740D+00
   -3.099441528320D-06 3.932260558940D-03 9.441748261452D-06 5.153636445999D+03
    4.392000000000D+05-7.264316082001D-08-9.980350207589D-01-5.774199962616D-08
    9.940854945082D-01 2.154062500000D+02 1.660565180177D+00-7.680319916153D-09
   -3.267993267894D-10 1.000000000000D+00 1.555000000000D+03 0.000000000000D+00
    2.000000000000D+00 0.000000000000D+00-1.117587089539D-08 9.800000000000D+01
    4.320180000000D+05 4.000000000000D+00
29 09 10 30  2  0  0.0 7.014209404588D-05 3.069544618484D-12 0.000000000000D+00
    5.100000000000D+01-4.662500000000D+01 4.368039089218D-09-2.084686721101D+00
   -2.341344952583D-06 2.936405129731D-03 1.065619289875D-05 5.153586271286D+03
    4.392000000000D+05 4.842877388000D-08 2.108724268921D+00 5.774199962616D-08
    9.600038700717D-01 1.706250000000D+02-1.271241051950D+00-7.960331579762D-09
   -3.264421690552D-10 1.000000000000D+00 1.555000000000D+03 0.000000000000D+00
    2.000000000000D+00 0.000000000000D+00-8.847564458847D-09 5.100000000000D+01
    4.320180000000D+05 4.000000000000D+00
 2 09 10 30  2  0  0.0 1.860442571342D-04 3.979039320257D-12 0.000000000000D+00
    9.500000000000D+01 7.393750000000D+01 5.030566686152D-09 4.826885636076D-01
    3.889203071594D-06 9.148369310424D-03 9.382143616676D-06 5.153732614517D+03
    4.392000000000D+05 1.993030309677D-07 3.113461249484D+00-2.235174179077D-08
    9.411110218516D-01 1.887500000000D+02 2.909184941150D+00-8.387492229861D-09
    3.514432104489D-10 1.000000000000D+00 1.555000000000D+03 0.000000000000D+00
    2.000000000000D+00 0.000000000000D+00-1.722946763039D-08 9.500000000000D+01
    4.320180000000D+05 4.000000000000D+00
10 09 10 30  2  0  0.0-2.710008993745D-05-9.094947017729D-13 0.000000000000D+00
    2.200000000000D+01 7.875000000000D+00 5.186287458261D-09 1.625512777932D+00
    5.140900611877D-07 8.674724493176D-03 3.673136234283D-06 5.153389076233D+03
    4.392000000000D+05-1.862645149231D-07-2.084776566215D+00 1.564621925354D-07
    9.560456657909D-01 3.085000000000D+02 6.185769159257D-01-8.641431378874D-09
   -5.428797559780D-11 1.000000000000D+00 1.555000000000D+03 0.000000000000D+00
    2.000000000000D+00 0.000000000000D+00-2.793967723846D-09 2.200000000000D+01
    4.320180000000D+05 4.000000000000D+00
16 09 10 30  2  0  0.0-2.874992787838D-06-4.092726157978D-12 0.000000000000D+00
    1.070000000000D+02-6.031250000000D+00 4.635550232131D-09 2.719773014263D+00
   -3.185123205185D-07 5.309134488925D-03 4.252418875694D-06 5.153641042709D+03
    4.392000000000D+05 1.862645149231D-09 1.057370150042D+00 5.029141902924D-08
    9.695750291603D-01 3.038125000000D+02-2.696536813468D-01-8.189269687382D-09
   -9.643258823294D-12 1.000000000000D+00 1.555000000000D+03 0.000000000000D+00
    2.000000000000D+00 0.000000000000D+00-9.778887033463D-09 1.070000000000D+02
    4.320180000000D+05 4.000000000000D+00
